COSMOS 1743             
1 16719U 86034A   25300.51187789  .00029626  00000+0  54537-3 0  9992
2 16719  82.5384 212.4811 0009386  64.9474 295.2750 15.48976253159572
SL-14 R/B               
1 16792U 86046B   25300.23519823  .00000794  00000+0  89130-4 0  9996
2 16792  82.4845 206.2241 0022055 312.0606  47.8732 14.85415453106599
SL-14 R/B               
1 16882U 86055B   25300.37986333  .00000961  00000+0  10833-3 0  9994
2 16882  82.5196 251.9294 0020416  55.9606  60.4779 14.85452013 99570
AJISAI (EGS)            
1 16908U 86061A   25300.55911288 -.00000094  00000+0  24504-4 0  9996
2 16908  50.0073 142.7209 0011137 309.0718  87.1618 12.44513997451429
COSMOS 1812             
1 17295U 87003A   25300.16031729  .00059675  00000+0  56440-3 0  9994
2 17295  82.4905 342.0814 0002905 193.8739 166.2442 15.66751537123346
SL-14 R/B               
1 17567U 87024B   25300.24968564  .00000890  00000+0  99045-4 0  9998
2 17567  82.5303 218.1171 0018017 347.8735  12.2045 14.85953216 68310
COSMOS 1833             
1 17589U 87027A   25300.27876745 -.00000288  00000+0 -12858-3 0  9996
2 17589  70.9166 246.4417 0020350  38.0161 322.2392 14.13027442991468
SL-16 R/B               
1 17590U 87027B   25300.42787000 -.00000165  00000+0 -57906-4 0  9998
2 17590  71.0030 197.3034 0006755 308.2659  51.7857 14.17142297996508
SL-14 R/B               
1 17912U 87038B   25300.44554632  .00000906  00000+0  10279-3 0  9995
2 17912  82.5018  62.2927 0018022 243.1213 116.8161 14.85187753 59459
COSMOS 1844             
1 17973U 87041A   25300.38429537  .00000168  00000+0  11218-3 0  9998
2 17973  70.8978 315.3445 0032634 225.5794 134.2656 14.14506674984731
SL-14 R/B               
1 18153U 87055B   25300.44558661  .00000798  00000+0  89436-4 0  9999
2 18153  82.4961 114.6177 0022202  93.8018 266.5737 14.85446181 50153
COSMOS 1867             
1 18187U 87060A   25300.42365135  .00000017  00000+0  43849-4 0  9994
2 18187  65.0108 319.9066 0013799 266.5681  93.3825 14.31474471   864
