CCSDS_OMM_VERS = 2.0
CREATION_DATE  = 
ORIGINATOR     = 

OBJECT_NAME    = COSMOS 1743
OBJECT_ID      = 1986-034A
CENTER_NAME    = EARTH
REF_FRAME      = TEME
TIME_SYSTEM    = UTC
MEAN_ELEMENT_THEORY = SGP/SGP4

EPOCH          = 2025-10-27T12:17:06.249696
MEAN_MOTION    = 15.48976253
ECCENTRICITY   = .0009386
INCLINATION    = 82.5384
RA_OF_ASC_NODE = 212.4811
ARG_OF_PERICENTER = 64.9474
MEAN_ANOMALY   = 295.2750

EPHEMERIS_TYPE = 0
CLASSIFICATION_TYPE = U
NORAD_CAT_ID   = 16719
ELEMENT_SET_NO = 999
REV_AT_EPOCH   = 15957
BSTAR          = .54537E-3
MEAN_MOTION_DOT = .29626E-3
MEAN_MOTION_DDOT = 0

CCSDS_OMM_VERS = 2.0
CREATION_DATE  = 
ORIGINATOR     = 

OBJECT_NAME    = SL-14 R/B
OBJECT_ID      = 1986-046B
CENTER_NAME    = EARTH
REF_FRAME      = TEME
TIME_SYSTEM    = UTC
MEAN_ELEMENT_THEORY = SGP/SGP4

EPOCH          = 2025-10-27T05:38:41.127072
MEAN_MOTION    = 14.85415453
ECCENTRICITY   = .0022055
INCLINATION    = 82.4845
RA_OF_ASC_NODE = 206.2241
ARG_OF_PERICENTER = 312.0606
MEAN_ANOMALY   = 47.8732

EPHEMERIS_TYPE = 0
CLASSIFICATION_TYPE = U
NORAD_CAT_ID   = 16792
ELEMENT_SET_NO = 999
REV_AT_EPOCH   = 10659
BSTAR          = .8913E-4
MEAN_MOTION_DOT = .794E-5
MEAN_MOTION_DDOT = 0

CCSDS_OMM_VERS = 2.0
CREATION_DATE  = 
ORIGINATOR     = 

OBJECT_NAME    = SL-14 R/B
OBJECT_ID      = 1986-055B
CENTER_NAME    = EARTH
REF_FRAME      = TEME
TIME_SYSTEM    = UTC
MEAN_ELEMENT_THEORY = SGP/SGP4

EPOCH          = 2025-10-27T09:07:00.191712
MEAN_MOTION    = 14.85452013
ECCENTRICITY   = .0020416
INCLINATION    = 82.5196
RA_OF_ASC_NODE = 251.9294
ARG_OF_PERICENTER = 55.9606
MEAN_ANOMALY   = 60.4779

EPHEMERIS_TYPE = 0
CLASSIFICATION_TYPE = U
NORAD_CAT_ID   = 16882
ELEMENT_SET_NO = 999
REV_AT_EPOCH   = 9957
BSTAR          = .10833E-3
MEAN_MOTION_DOT = .961E-5
MEAN_MOTION_DDOT = 0

CCSDS_OMM_VERS = 2.0
CREATION_DATE  = 
ORIGINATOR     = 

OBJECT_NAME    = AJISAI (EGS)
OBJECT_ID      = 1986-061A
CENTER_NAME    = EARTH
REF_FRAME      = TEME
TIME_SYSTEM    = UTC
MEAN_ELEMENT_THEORY = SGP/SGP4

EPOCH          = 2025-10-27T13:25:07.352832
MEAN_MOTION    = 12.44513997
ECCENTRICITY   = .0011137
INCLINATION    = 50.0073
RA_OF_ASC_NODE = 142.7209
ARG_OF_PERICENTER = 309.0718
MEAN_ANOMALY   = 87.1618

EPHEMERIS_TYPE = 0
CLASSIFICATION_TYPE = U
NORAD_CAT_ID   = 16908
ELEMENT_SET_NO = 999
REV_AT_EPOCH   = 45142
BSTAR          = .24504E-4
MEAN_MOTION_DOT = -.94E-6
MEAN_MOTION_DDOT = 0

CCSDS_OMM_VERS = 2.0
CREATION_DATE  = 
ORIGINATOR     = 

OBJECT_NAME    = COSMOS 1812
OBJECT_ID      = 1987-003A
CENTER_NAME    = EARTH
REF_FRAME      = TEME
TIME_SYSTEM    = UTC
MEAN_ELEMENT_THEORY = SGP/SGP4

EPOCH          = 2025-10-27T03:50:51.413856
MEAN_MOTION    = 15.66751537
ECCENTRICITY   = .00029054
INCLINATION    = 82.4905
RA_OF_ASC_NODE = 342.0814
ARG_OF_PERICENTER = 193.8739
MEAN_ANOMALY   = 166.2442

EPHEMERIS_TYPE = 0
CLASSIFICATION_TYPE = U
NORAD_CAT_ID   = 17295
ELEMENT_SET_NO = 999
REV_AT_EPOCH   = 12334
BSTAR          = .56439899E-3
MEAN_MOTION_DOT = .59675E-3
MEAN_MOTION_DDOT = 0

CCSDS_OMM_VERS = 2.0
CREATION_DATE  = 
ORIGINATOR     = 

OBJECT_NAME    = SL-14 R/B
OBJECT_ID      = 1987-024B
CENTER_NAME    = EARTH
REF_FRAME      = TEME
TIME_SYSTEM    = UTC
MEAN_ELEMENT_THEORY = SGP/SGP4

EPOCH          = 2025-10-27T05:59:32.839296
MEAN_MOTION    = 14.85953216
ECCENTRICITY   = .0018017
INCLINATION    = 82.5303
RA_OF_ASC_NODE = 218.1171
ARG_OF_PERICENTER = 347.8735
MEAN_ANOMALY   = 12.2045

EPHEMERIS_TYPE = 0
CLASSIFICATION_TYPE = U
NORAD_CAT_ID   = 17567
ELEMENT_SET_NO = 999
REV_AT_EPOCH   = 6831
BSTAR          = .99045E-4
MEAN_MOTION_DOT = .89E-5
MEAN_MOTION_DDOT = 0

CCSDS_OMM_VERS = 2.0
CREATION_DATE  = 
ORIGINATOR     = 

OBJECT_NAME    = COSMOS 1833
OBJECT_ID      = 1987-027A
CENTER_NAME    = EARTH
REF_FRAME      = TEME
TIME_SYSTEM    = UTC
MEAN_ELEMENT_THEORY = SGP/SGP4

EPOCH          = 2025-10-27T06:41:25.507680
MEAN_MOTION    = 14.13027442
ECCENTRICITY   = .002035
INCLINATION    = 70.9166
RA_OF_ASC_NODE = 246.4417
ARG_OF_PERICENTER = 38.0161
MEAN_ANOMALY   = 322.2392

EPHEMERIS_TYPE = 0
CLASSIFICATION_TYPE = U
NORAD_CAT_ID   = 17589
ELEMENT_SET_NO = 999
REV_AT_EPOCH   = 99146
BSTAR          = -.12858E-3
MEAN_MOTION_DOT = -.288E-5
MEAN_MOTION_DDOT = 0

CCSDS_OMM_VERS = 2.0
CREATION_DATE  = 
ORIGINATOR     = 

OBJECT_NAME    = SL-16 R/B
OBJECT_ID      = 1987-027B
CENTER_NAME    = EARTH
REF_FRAME      = TEME
TIME_SYSTEM    = UTC
MEAN_ELEMENT_THEORY = SGP/SGP4

EPOCH          = 2025-10-27T10:16:07.968000
MEAN_MOTION    = 14.17142297
ECCENTRICITY   = .0006755
INCLINATION    = 71.0030
RA_OF_ASC_NODE = 197.3034
ARG_OF_PERICENTER = 308.2659
MEAN_ANOMALY   = 51.7857

EPHEMERIS_TYPE = 0
CLASSIFICATION_TYPE = U
NORAD_CAT_ID   = 17590
ELEMENT_SET_NO = 999
REV_AT_EPOCH   = 99650
BSTAR          = -.57906E-4
MEAN_MOTION_DOT = -.165E-5
MEAN_MOTION_DDOT = 0

CCSDS_OMM_VERS = 2.0
CREATION_DATE  = 
ORIGINATOR     = 

OBJECT_NAME    = SL-14 R/B
OBJECT_ID      = 1987-038B
CENTER_NAME    = EARTH
REF_FRAME      = TEME
TIME_SYSTEM    = UTC
MEAN_ELEMENT_THEORY = SGP/SGP4

EPOCH          = 2025-10-27T10:41:35.202048
MEAN_MOTION    = 14.85187753
ECCENTRICITY   = .0018022
INCLINATION    = 82.5018
RA_OF_ASC_NODE = 62.2927
ARG_OF_PERICENTER = 243.1213
MEAN_ANOMALY   = 116.8161

EPHEMERIS_TYPE = 0
CLASSIFICATION_TYPE = U
NORAD_CAT_ID   = 17912
ELEMENT_SET_NO = 999
REV_AT_EPOCH   = 5945
BSTAR          = .10279E-3
MEAN_MOTION_DOT = .906E-5
MEAN_MOTION_DDOT = 0

CCSDS_OMM_VERS = 2.0
CREATION_DATE  = 
ORIGINATOR     = 

OBJECT_NAME    = COSMOS 1844
OBJECT_ID      = 1987-041A
CENTER_NAME    = EARTH
REF_FRAME      = TEME
TIME_SYSTEM    = UTC
MEAN_ELEMENT_THEORY = SGP/SGP4

EPOCH          = 2025-10-27T09:13:23.119968
MEAN_MOTION    = 14.14506674
ECCENTRICITY   = .0032634
INCLINATION    = 70.8978
RA_OF_ASC_NODE = 315.3445
ARG_OF_PERICENTER = 225.5794
MEAN_ANOMALY   = 134.2656

EPHEMERIS_TYPE = 0
CLASSIFICATION_TYPE = U
NORAD_CAT_ID   = 17973
ELEMENT_SET_NO = 999
REV_AT_EPOCH   = 98473
BSTAR          = .11218E-3
MEAN_MOTION_DOT = .168E-5
MEAN_MOTION_DDOT = 0

CCSDS_OMM_VERS = 2.0
CREATION_DATE  = 
ORIGINATOR     = 

OBJECT_NAME    = SL-14 R/B
OBJECT_ID      = 1987-055B
CENTER_NAME    = EARTH
REF_FRAME      = TEME
TIME_SYSTEM    = UTC
MEAN_ELEMENT_THEORY = SGP/SGP4

EPOCH          = 2025-10-27T10:41:38.683104
MEAN_MOTION    = 14.85446181
ECCENTRICITY   = .0022202
INCLINATION    = 82.4961
RA_OF_ASC_NODE = 114.6177
ARG_OF_PERICENTER = 93.8018
MEAN_ANOMALY   = 266.5737

EPHEMERIS_TYPE = 0
CLASSIFICATION_TYPE = U
NORAD_CAT_ID   = 18153
ELEMENT_SET_NO = 999
REV_AT_EPOCH   = 5015
BSTAR          = .89436E-4
MEAN_MOTION_DOT = .798E-5
MEAN_MOTION_DDOT = 0

CCSDS_OMM_VERS = 2.0
CREATION_DATE  = 
ORIGINATOR     = 

OBJECT_NAME    = COSMOS 1867
OBJECT_ID      = 1987-060A
CENTER_NAME    = EARTH
REF_FRAME      = TEME
TIME_SYSTEM    = UTC
MEAN_ELEMENT_THEORY = SGP/SGP4

EPOCH          = 2025-10-27T10:10:03.476640
MEAN_MOTION    = 14.31474471
ECCENTRICITY   = .0013799
INCLINATION    = 65.0108
RA_OF_ASC_NODE = 319.9066
ARG_OF_PERICENTER = 266.5681
MEAN_ANOMALY   = 93.3825

EPHEMERIS_TYPE = 0
CLASSIFICATION_TYPE = U
NORAD_CAT_ID   = 18187
ELEMENT_SET_NO = 999
REV_AT_EPOCH   = 86
BSTAR          = .43849E-4
MEAN_MOTION_DOT = .17E-6
MEAN_MOTION_DDOT = 0

